start=new Date('2023-06-13T00:00:00.000Z').valueOf();
sats=[{"RCS_SIZE":"LARGE","LAUNCH_DATE":"2022-06-17","EPHEMERIS_TYPE":"0","BSTAR":"0.00006716700000","SEMIMAJOR_AXIS":"6917.872","REV_AT_EPOCH":"5476","OBJECT_NAME":"STARLINK-4272","COUNTRY_CODE":"US","APOAPSIS":"540.407","DECAY_DATE":null,"NORAD_CAT_ID":"52866","MEAN_MOTION_DOT":"0.00000781","PERIAPSIS":"539.068","CENTER_NAME":"EARTH","MEAN_ANOMALY":"273.9231","TLE_LINE2":"2 52866  53.2158 199.1846 0000968  86.1872 273.9231 15.08842683 54760","RA_OF_ASC_NODE":"199.1846","ARG_OF_PERICENTER":"86.1872","SITE":"AFETR","CLASSIFICATION_TYPE":"U","ECCENTRICITY":"0.00009680","FILE":"3931287","PERIOD":"95.437","TLE_LINE1":"1 52866U 22062AN  23163.37777568  .00000781  00000-0  67167-4 0  9991","TIME_SYSTEM":"UTC","REF_FRAME":"TEME","MEAN_MOTION":"15.08842683","OBJECT_TYPE":"PAYLOAD","EPOCH":"2023-06-12T09:03:59.818752","MEAN_ELEMENT_THEORY":"SGP4","MEAN_MOTION_DDOT":"0.0000000000000","OBJECT_ID":"2022-062AN","INCLINATION":"53.2158","GP_ID":"233766931","ELEMENT_SET_NO":"999"},{"GP_ID":"233801481","ELEMENT_SET_NO":"999","OBJECT_TYPE":"PAYLOAD","INCLINATION":"53.2156","MEAN_MOTION_DDOT":"0.0000000000000","OBJECT_ID":"2022-062AP","MEAN_ELEMENT_THEORY":"SGP4","EPOCH":"2023-06-12T19:50:30.297984","REF_FRAME":"TEME","TIME_SYSTEM":"UTC","MEAN_MOTION":"15.08842977","ECCENTRICITY":"0.00009400","FILE":"3931605","CLASSIFICATION_TYPE":"U","SITE":"AFETR","PERIOD":"95.437","TLE_LINE1":"1 52867U 22062AP  23163.82673956  .00000869  00000-0  72689-4 0  9990","RA_OF_ASC_NODE":"197.1672","TLE_LINE2":"2 52867  53.2156 197.1672 0000940  86.1167 273.9932 15.08842977 54833","MEAN_ANOMALY":"273.9932","ARG_OF_PERICENTER":"86.1167","MEAN_MOTION_DOT":"0.00000869","CENTER_NAME":"EARTH","PERIAPSIS":"539.086","NORAD_CAT_ID":"52867","APOAPSIS":"540.387","DECAY_DATE":null,"COUNTRY_CODE":"US","BSTAR":"0.00007268900000","LAUNCH_DATE":"2022-06-17","EPHEMERIS_TYPE":"0","RCS_SIZE":"LARGE","OBJECT_NAME":"STARLINK-4126","REV_AT_EPOCH":"5483","SEMIMAJOR_AXIS":"6917.871"},{"CENTER_NAME":"EARTH","PERIAPSIS":"539.194","MEAN_MOTION_DOT":"0.00001187","ARG_OF_PERICENTER":"82.6674","RA_OF_ASC_NODE":"199.2304","TLE_LINE2":"2 52868  53.2161 199.2304 0000794  82.6674 277.4408 15.08840805 54763","MEAN_ANOMALY":"277.4408","REV_AT_EPOCH":"5476","OBJECT_NAME":"STARLINK-4261","SEMIMAJOR_AXIS":"6917.878","BSTAR":"0.00009264100000","LAUNCH_DATE":"2022-06-17","EPHEMERIS_TYPE":"0","RCS_SIZE":"LARGE","NORAD_CAT_ID":"52868","DECAY_DATE":null,"APOAPSIS":"540.292","COUNTRY_CODE":"US","INCLINATION":"53.2161","MEAN_MOTION_DDOT":"0.0000000000000","OBJECT_ID":"2022-062AQ","MEAN_ELEMENT_THEORY":"SGP4","EPOCH":"2023-06-12T08:58:42.304800","OBJECT_TYPE":"PAYLOAD","ELEMENT_SET_NO":"999","GP_ID":"233767433","TLE_LINE1":"1 52868U 22062AQ  23163.37410075  .00001187  00000-0  92641-4 0  9996","PERIOD":"95.438","ECCENTRICITY":"0.00007940","FILE":"3931287","CLASSIFICATION_TYPE":"U","SITE":"AFETR","MEAN_MOTION":"15.08840805","REF_FRAME":"TEME","TIME_SYSTEM":"UTC"},{"REV_AT_EPOCH":"5491","OBJECT_NAME":"STARLINK-4266","SEMIMAJOR_AXIS":"6917.878","BSTAR":"0.00004831400000","EPHEMERIS_TYPE":"0","LAUNCH_DATE":"2022-06-17","RCS_SIZE":"LARGE","NORAD_CAT_ID":"52869","APOAPSIS":"540.579","DECAY_DATE":null,"COUNTRY_CODE":"US","CENTER_NAME":"EARTH","PERIAPSIS":"538.906","MEAN_MOTION_DOT":"0.00000481","ARG_OF_PERICENTER":"86.8185","RA_OF_ASC_NODE":"188.6852","TLE_LINE2":"2 52869  53.2150 188.6852 0001209  86.8185 273.2946 15.08840893 54912","MEAN_ANOMALY":"273.2946","TLE_LINE1":"1 52869U 22062AR  23163.48910043  .00000481  00000-0  48314-4 0  9993","PERIOD":"95.437","ECCENTRICITY":"0.00012090","FILE":"3931287","CLASSIFICATION_TYPE":"U","SITE":"AFETR","MEAN_MOTION":"15.08840893","REF_FRAME":"TEME","TIME_SYSTEM":"UTC","INCLINATION":"53.2150","OBJECT_ID":"2022-062AR","MEAN_MOTION_DDOT":"0.0000000000000","MEAN_ELEMENT_THEORY":"SGP4","EPOCH":"2023-06-12T11:44:18.277152","OBJECT_TYPE":"PAYLOAD","ELEMENT_SET_NO":"999","GP_ID":"233768181"},{"PERIAPSIS":"539.239","CENTER_NAME":"EARTH","MEAN_MOTION_DOT":"0.00002220","ARG_OF_PERICENTER":"75.4328","MEAN_ANOMALY":"284.6740","TLE_LINE2":"2 52870  53.2155 197.1508 0000681  75.4328 284.6740 15.08851536 54833","RA_OF_ASC_NODE":"197.1508","SEMIMAJOR_AXIS":"6917.845","OBJECT_NAME":"STARLINK-4195","REV_AT_EPOCH":"5483","RCS_SIZE":"LARGE","EPHEMERIS_TYPE":"0","LAUNCH_DATE":"2022-06-17","BSTAR":"0.00015745000000","COUNTRY_CODE":"US","APOAPSIS":"540.181","DECAY_DATE":null,"NORAD_CAT_ID":"52870","EPOCH":"2023-06-12T19:55:46.926336","MEAN_ELEMENT_THEORY":"SGP4","OBJECT_ID":"2022-062AS","MEAN_MOTION_DDOT":"0.0000000000000","INCLINATION":"53.2155","OBJECT_TYPE":"PAYLOAD","ELEMENT_SET_NO":"999","GP_ID":"233802728","TLE_LINE1":"1 52870U 22062AS  23163.83040424  .00002220  00000-0  15745-3 0  9995","PERIOD":"95.437","SITE":"AFETR","CLASSIFICATION_TYPE":"U","ECCENTRICITY":"0.00006810","FILE":"3931605","MEAN_MOTION":"15.08851536","TIME_SYSTEM":"UTC","REF_FRAME":"TEME"},{"CENTER_NAME":"EARTH","PERIAPSIS":"539.186","MEAN_MOTION_DOT":"0.00000727","ARG_OF_PERICENTER":"80.1977","TLE_LINE2":"2 52871  53.2152 188.7356 0000793  80.1977 279.9105 15.08843388 54912","RA_OF_ASC_NODE":"188.7356","MEAN_ANOMALY":"279.9105","OBJECT_NAME":"STARLINK-4207","REV_AT_EPOCH":"5491","SEMIMAJOR_AXIS":"6917.870","BSTAR":"0.00006372400000","RCS_SIZE":"LARGE","LAUNCH_DATE":"2022-06-17","EPHEMERIS_TYPE":"0","NORAD_CAT_ID":"52871","COUNTRY_CODE":"US","APOAPSIS":"540.284","DECAY_DATE":null,"MEAN_MOTION_DDOT":"0.0000000000000","OBJECT_ID":"2022-062AT","INCLINATION":"53.2152","EPOCH":"2023-06-12T11:28:24.066048","MEAN_ELEMENT_THEORY":"SGP4","OBJECT_TYPE":"PAYLOAD","ELEMENT_SET_NO":"999","GP_ID":"233766682","PERIOD":"95.437","TLE_LINE1":"1 52871U 22062AT  23163.47805632  .00000727  00000-0  63724-4 0  9997","CLASSIFICATION_TYPE":"U","ECCENTRICITY":"0.00007930","FILE":"3931287","SITE":"AFETR","MEAN_MOTION":"15.08843388","REF_FRAME":"TEME","TIME_SYSTEM":"UTC"},{"MEAN_MOTION":"15.08840800","REF_FRAME":"TEME","TIME_SYSTEM":"UTC","PERIOD":"95.438","TLE_LINE1":"1 52872U 22062AU  23163.35021331  .00001863  00000-0  13510-3 0  9990","CLASSIFICATION_TYPE":"U","ECCENTRICITY":"0.00008550","FILE":"3931287","SITE":"AFETR","ELEMENT_SET_NO":"999","GP_ID":"233767933","MEAN_MOTION_DDOT":"0.0000000000000","OBJECT_ID":"2022-062AU","INCLINATION":"53.2150","EPOCH":"2023-06-12T08:24:18.429984","MEAN_ELEMENT_THEORY":"SGP4","OBJECT_TYPE":"PAYLOAD","NORAD_CAT_ID":"52872","COUNTRY_CODE":"US","APOAPSIS":"540.334","DECAY_DATE":null,"REV_AT_EPOCH":"5489","OBJECT_NAME":"STARLINK-4213","SEMIMAJOR_AXIS":"6917.878","BSTAR":"0.00013510000000","RCS_SIZE":"LARGE","LAUNCH_DATE":"2022-06-17","EPHEMERIS_TYPE":"0","ARG_OF_PERICENTER":"74.2163","TLE_LINE2":"2 52872  53.2150 189.2802 0000855  74.2163 285.8924 15.08840800 54891","RA_OF_ASC_NODE":"189.2802","MEAN_ANOMALY":"285.8924","CENTER_NAME":"EARTH","PERIAPSIS":"539.151","MEAN_MOTION_DOT":"0.00001863"},{"GP_ID":"233801984","ELEMENT_SET_NO":"999","OBJECT_TYPE":"PAYLOAD","MEAN_MOTION_DDOT":"0.0000000000000","OBJECT_ID":"2022-062AV","INCLINATION":"53.2156","EPOCH":"2023-06-12T19:14:44.243808","MEAN_ELEMENT_THEORY":"SGP4","REF_FRAME":"TEME","TIME_SYSTEM":"UTC","MEAN_MOTION":"15.08842022","CLASSIFICATION_TYPE":"U","FILE":"3931605","ECCENTRICITY":"0.00009600","SITE":"AFETR","PERIOD":"95.437","TLE_LINE1":"1 52873U 22062AV  23163.80190097  .00000935  00000-0  76805-4 0  9993","TLE_LINE2":"2 52873  53.2156 187.2796 0000960  79.7810 280.3290 15.08842022 54966","RA_OF_ASC_NODE":"187.2796","MEAN_ANOMALY":"280.3290","ARG_OF_PERICENTER":"79.7810","MEAN_MOTION_DOT":"0.00000935","CENTER_NAME":"EARTH","PERIAPSIS":"539.075","NORAD_CAT_ID":"52873","COUNTRY_CODE":"US","DECAY_DATE":null,"APOAPSIS":"540.403","BSTAR":"0.00007680500000","RCS_SIZE":"LARGE","LAUNCH_DATE":"2022-06-17","EPHEMERIS_TYPE":"0","OBJECT_NAME":"STARLINK-4211","REV_AT_EPOCH":"5496","SEMIMAJOR_AXIS":"6917.874"},{"TLE_LINE1":"1 52874U 22062AW  23163.48173665  .00000578  00000-0  54395-4 0  9993","PERIOD":"95.437","CLASSIFICATION_TYPE":"U","FILE":"3931287","ECCENTRICITY":"0.00009940","SITE":"AFETR","MEAN_MOTION":"15.08844605","REF_FRAME":"TEME","TIME_SYSTEM":"UTC","MEAN_MOTION_DDOT":"0.0000000000000","OBJECT_ID":"2022-062AW","INCLINATION":"53.2155","EPOCH":"2023-06-12T11:33:42.046560","MEAN_ELEMENT_THEORY":"SGP4","OBJECT_TYPE":"PAYLOAD","ELEMENT_SET_NO":"999","GP_ID":"233766932","OBJECT_NAME":"STARLINK-4210","REV_AT_EPOCH":"5491","SEMIMAJOR_AXIS":"6917.866","BSTAR":"0.00005439500000","RCS_SIZE":"LARGE","LAUNCH_DATE":"2022-06-17","EPHEMERIS_TYPE":"0","NORAD_CAT_ID":"52874","COUNTRY_CODE":"US","DECAY_DATE":null,"APOAPSIS":"540.419","CENTER_NAME":"EARTH","PERIAPSIS":"539.044","MEAN_MOTION_DOT":"0.00000578","ARG_OF_PERICENTER":"77.4909","TLE_LINE2":"2 52874  53.2155 188.7190 0000994  77.4909 282.6195 15.08844605 54914","RA_OF_ASC_NODE":"188.7190","MEAN_ANOMALY":"282.6195"},{"MEAN_MOTION":"15.08841213","TIME_SYSTEM":"UTC","REF_FRAME":"TEME","PERIOD":"95.437","TLE_LINE1":"1 52875U 22062AX  23163.79822026  .00000490  00000-0  48840-4 0  9991","SITE":"AFETR","ECCENTRICITY":"0.00008770","FILE":"3931605","CLASSIFICATION_TYPE":"U","ELEMENT_SET_NO":"999","GP_ID":"233801482","MEAN_ELEMENT_THEORY":"SGP4","EPOCH":"2023-06-12T19:09:26.230464","INCLINATION":"53.2157","OBJECT_ID":"2022-062AX","MEAN_MOTION_DDOT":"0.0000000000000","OBJECT_TYPE":"PAYLOAD","APOAPSIS":"540.348","DECAY_DATE":null,"COUNTRY_CODE":"US","NORAD_CAT_ID":"52875","SEMIMAJOR_AXIS":"6917.877","OBJECT_NAME":"STARLINK-4193","REV_AT_EPOCH":"5496","LAUNCH_DATE":"2022-06-17","EPHEMERIS_TYPE":"0","RCS_SIZE":"LARGE","BSTAR":"0.00004884000000","ARG_OF_PERICENTER":"78.7246","MEAN_ANOMALY":"281.3844","RA_OF_ASC_NODE":"187.2986","TLE_LINE2":"2 52875  53.2157 187.2986 0000877  78.7246 281.3844 15.08841213 54966","PERIAPSIS":"539.135","CENTER_NAME":"EARTH","MEAN_MOTION_DOT":"0.00000490"}];
